<?xml version="1.0" encoding="UTF-8"?>
<gpx version="1.1" creator="DGS demo" xmlns="http://www.topografix.com/GPX/1/1">
  <wpt lat="45.7955" lon="126.5980"><name>示例 · 公园入口</name><desc>演示航点，并非真实到访记录。</desc><time>2026-04-05T10:20:00Z</time></wpt>
  <trk><name>示例 · 江边路线</name><desc>演示路线，并非真实行程。</desc><trkseg>
    <trkpt lat="45.7830" lon="126.6090"><time>2026-04-05T09:00:00Z</time></trkpt>
    <trkpt lat="45.7890" lon="126.6030"><time>2026-04-05T09:45:00Z</time></trkpt>
    <trkpt lat="45.7955" lon="126.5980"><time>2026-04-05T10:20:00Z</time></trkpt>
  </trkseg></trk>
</gpx>
