<?xml version="1.0" encoding="UTF-8"?>
<gpx version="1.1" creator="DGS demo" xmlns="http://www.topografix.com/GPX/1/1">
  <wpt lat="45.7730" lon="126.6205"><name>示例 · 中央大街</name><desc>演示航点，并非真实到访记录。</desc><time>2026-03-22T09:30:00Z</time></wpt>
  <trk><name>示例 · 城区漫游</name><desc>演示路线，并非真实行程。</desc><trkseg>
    <trkpt lat="45.7712" lon="126.6150"><time>2026-03-22T09:00:00Z</time></trkpt>
    <trkpt lat="45.7730" lon="126.6205"><time>2026-03-22T09:30:00Z</time></trkpt>
    <trkpt lat="45.7770" lon="126.6240"><time>2026-03-22T10:00:00Z</time></trkpt>
  </trkseg></trk>
</gpx>
